IRIDIUM 57 [-]          
1 25273U 98019B   24002.92438559  .00000381  00000+0  12687-3 0  9997
2 25273  86.3963   7.7369 0002238  90.4750 269.6703 14.35033457348573
IRIDIUM 63 [-]          
1 25286U 98021B   24002.80037122  .00000555  00000+0  18595-3 0  9999
2 25286  86.3990 304.7237 0002157  90.9265 269.2179 14.35550917347585
IRIDIUM 69 [-]          
1 25319U 98026A   24002.93740245  .00000530  00000+0  16309-3 0  9996
2 25319  86.3994 319.5423 0002493  30.4127 329.7216 14.39730107346595
IRIDIUM 71 [-]          
1 25320U 98026B   24002.90505870  .00000544  00000+0  16635-3 0  9995
2 25320  86.3985 314.3603 0003996  64.6771 295.4842 14.40058154347102
IRIDIUM 73 [-]          
1 25344U 98032C   24002.75606796  .00000683  00000+0  17042-3 0  9997
2 25344  86.4417 272.0988 0002187  67.0511 293.0924 14.50222105353501
IRIDIUM 82 [-]          
1 25467U 98051A   24002.94605572  .00008975  00000+0  49994-3 0  9999
2 25467  86.3966   4.1598 0143633 108.2037 253.4894 15.04949724343440
IRIDIUM 2 [-]           
1 25527U 98066A   24002.61939973  .00040317  00000+0  72486-3 0  9999
2 25527  85.5154  49.2893 0002291 201.9745 158.1415 15.49680947381884
